NORAD_CAT_ID,OBJECT_NAME,OBJECT_TYPE,EPOCH,MEAN_MOTION,ECCENTRICITY,INCLINATION,RA_OF_ASC_NODE,ARG_OF_PERICENTER,MEAN_ANOMALY,BSTAR,MEAN_MOTION_DOT,MEAN_MOTION_DDOT,TLE_LINE0,TLE_LINE1,TLE_LINE2,SEMIMAJOR_AXIS,PERIOD,APOGEE,PERIGEE,DECAYED
51774.0,STARLINK-3629,PAYLOAD,2023-06-20 20:31:23,15.08845611,0.0001529,53.2131,116.129,78.392,281.7243,-7.8093e-05,-1.531e-05,0.0,0 STARLINK-3629,1 51774U 22017G   23171.85513108 -.00001531  00000-0 -78093-4 0  9994,2 51774  53.2131 116.1290 0001529  78.3920 281.7243 15.08845611 72686,6917.863,95.437,540.786,538.67,0.0
51774.0,STARLINK-3629,PAYLOAD,2023-06-21 02:52:55,15.08844059,0.0001322,53.2161,114.9377,95.0606,265.0537,1.6786e-05,-2.1e-07,0.0,0 STARLINK-3629,1 51774U 22017G   23172.12008838 -.00000021  00000-0  16786-4 0  9997,2 51774  53.2161 114.9377 0001322  95.0606 265.0537 15.08844059 74227,6917.868,95.437,540.648,538.818,0.0
51774.0,STARLINK-3629,PAYLOAD,2023-06-22 04:19:06,15.08860547,0.0001328,53.2166,110.1806,103.529,256.585,-0.00032098,-5.396e-05,0.0,0 STARLINK-3629,1 51774U 22017G   23173.17993145 -.00005396  00000-0 -32098-3 0  9991,2 51774  53.2166 110.1806 0001328 103.5290 256.5850 15.08860547 74387,6917.818,95.436,540.601,538.764,0.0
51774.0,STARLINK-3629,PAYLOAD,2023-06-23 02:34:30,15.08837751,0.0001203,53.2166,106.0187,93.0042,267.1088,6.2993e-05,7.15e-06,0.0,0 STARLINK-3629,1 51774U 22017G   23174.10729416  .00000715  00000-0  62993-4 0  9999,2 51774  53.2166 106.0187 0001203  93.0042 267.1088 15.08837751 74521,6917.887,95.438,540.584,538.92,0.0
51774.0,STARLINK-3629,PAYLOAD,2023-06-24 04:00:40,15.0884286,0.0001014,53.2159,101.2602,99.2927,260.818,9.6704e-05,1.252e-05,0.0,0 STARLINK-3629,1 51774U 22017G   23175.16713241  .00001252  00000-0  96704-4 0  9999,2 51774  53.2159 101.2602 0001014  99.2927 260.8180 15.08842860 74689,6917.872,95.437,540.438,539.035,0.0
51774.0,STARLINK-3629,PAYLOAD,2023-06-25 02:16:04,15.08840943,0.0001127,53.2163,97.0957,88.1653,271.9468,5.9373e-06,-1.93e-06,0.0,0 STARLINK-3629,1 51774U 22017G   23176.09449844 -.00000193  00000-0  59373-5 0  9993,2 51774  53.2163  97.0957 0001127  88.1653 271.9468 15.08840943 74825,6917.878,95.437,540.522,538.963,0.0
51774.0,STARLINK-3629,PAYLOAD,2023-06-26 03:42:14,15.08850376,0.0001134,53.2161,92.3374,104.5476,255.5642,3.6167e-05,2.88e-06,0.0,0 STARLINK-3629,1 51774U 22017G   23177.15433125  .00000288  00000-0  36167-4 0  9995,2 51774  53.2161  92.3374 0001134 104.5476 255.5642 15.08850376 74988,6917.849,95.437,540.498,538.929,0.0
51774.0,STARLINK-3629,PAYLOAD,2023-06-26 11:39:11,15.088362,0.0001583,53.2154,90.853,81.2762,278.841,-3.4664e-05,-8.4e-06,0.0,0 STARLINK-3629,1 51774U 22017G   23177.48554430 -.00000840  00000-0 -34664-4 0  9990,2 51774  53.2154  90.8530 0001583  81.2762 278.8410 15.08836200 75032,6917.892,95.438,540.852,538.662,0.0
51774.0,STARLINK-3629,PAYLOAD,2023-06-27 21:02:16,15.08840709,0.0001131,53.2163,84.6068,82.6515,277.4605,0.00011244,1.502e-05,0.0,0 STARLINK-3629,1 51774U 22017G   23178.87657850  .00001502  00000-0  11244-3 0  9996,2 51774  53.2163  84.6068 0001131  82.6515 277.4605 15.08840709 75242,6917.878,95.438,540.526,538.961,0.0
51774.0,STARLINK-3629,PAYLOAD,2023-06-28 00:13:02,15.08848892,0.0001167,53.2166,84.0116,87.8074,272.3052,0.00012604,1.719e-05,0.0,0 STARLINK-3629,1 51774U 22017G   23179.00905437  .00001719  00000-0  12604-3 0  9990,2 51774  53.2166  84.0116 0001167  87.8074 272.3052 15.08848892 75262,6917.853,95.437,540.526,538.911,0.0
51774.0,STARLINK-3629,PAYLOAD,2023-06-29 03:14:36,15.0883839,0.0001207,53.2167,78.956,88.1796,271.9334,8.7347e-05,1.102e-05,0.0,0 STARLINK-3629,1 51774U 22017G   23180.13514286  .00001102  00000-0  87347-4 0  9997,2 51774  53.2167  78.9560 0001207  88.1796 271.9334 15.08838390 75437,6917.885,95.438,540.585,538.915,0.0
51774.0,STARLINK-3629,PAYLOAD,2023-06-29 09:36:09,15.08831893,0.0001082,53.2167,77.7678,79.6779,280.4335,3.9096e-06,-2.26e-06,0.0,0 STARLINK-3629,1 51774U 22017G   23180.40010837 -.00000226  00000-0  39096-5 0  9996,2 51774  53.2167  77.7678 0001082  79.6779 280.4335 15.08831893 75472,6917.905,95.438,540.519,539.022,0.0
51774.0,STARLINK-3629,PAYLOAD,2023-06-30 23:45:24,15.08840119,0.0001074,53.2165,70.6311,91.4169,268.6946,5.5133e-05,5.9e-06,0.0,0 STARLINK-3629,1 51774U 22017G   23181.98986541  .00000590  00000-0  55133-4 0  9996,2 51774  53.2165  70.6311 0001074  91.4169 268.6946 15.08840119 75716,6917.88,95.438,540.488,539.002,0.0
51774.0,STARLINK-3629,PAYLOAD,2023-07-02 01:11:34,15.08840531,0.0001192,53.2163,65.8738,88.8394,271.2734,7.7698e-05,9.49e-06,0.0,0 STARLINK-3629,1 51774U 22017G   23183.04970778  .00000949  00000-0  77698-4 0  9998,2 51774  53.2163  65.8738 0001192  88.8394 271.2734 15.08840531 75874,6917.879,95.438,540.568,538.919,0.0
51774.0,STARLINK-3629,PAYLOAD,2023-07-03 08:59:17,15.08839286,0.000132,53.2171,59.9265,85.4736,274.6407,0.00024091,3.548e-05,0.0,0 STARLINK-3629,1 51774U 22017G   23184.37451009  .00003548  00000-0  24091-3 0  9992,2 51774  53.2171  59.9265 0001320  85.4736 274.6407 15.08839286 76070,6917.883,95.438,540.661,538.834,0.0
51774.0,STARLINK-3629,PAYLOAD,2023-07-05 00:43:55,15.08844689,0.0001307,53.2165,52.4909,93.2479,266.8663,8.0869e-05,1e-05,0.0,0 STARLINK-3629,1 51774U 22017G   23186.03050768  .00001000  00000-0  80869-4 0  9991,2 51774  53.2165  52.4909 0001307  93.2479 266.8663 15.08844689 76320,6917.866,95.437,540.635,538.827,0.0
51774.0,STARLINK-3629,PAYLOAD,2023-07-05 22:59:19,15.088437,0.0001224,53.2172,48.3275,88.1335,271.9798,9.6515e-05,1.249e-05,0.0,0 STARLINK-3629,1 51774U 22017G   23186.95786812  .00001249  00000-0  96515-4 0  9998,2 51774  53.2172  48.3275 0001224  88.1335 271.9798 15.08843700 76464,6917.869,95.437,540.581,538.887,0.0
51774.0,STARLINK-3629,PAYLOAD,2023-07-07 00:25:29,15.0885157,0.0001172,53.218,43.5698,89.4102,270.7024,0.00014037,1.948e-05,0.0,0 STARLINK-3629,1 51774U 22017G   23188.01770147  .00001948  00000-0  14037-3 0  9995,2 51774  53.2180  43.5698 0001172  89.4102 270.7024 15.08851570 76628,6917.845,95.437,540.521,538.899,0.0
51774.0,STARLINK-3629,PAYLOAD,2023-07-07 21:05:30,15.08843945,0.0001151,53.2176,39.7053,98.0285,262.0838,9.7833e-05,1.27e-05,0.0,0 STARLINK-3629,1 51774U 22017G   23188.87882867  .00001270  00000-0  97833-4 0  9996,2 51774  53.2176  39.7053 0001151  98.0285 262.0838 15.08843945 76758,6917.868,95.437,540.53,538.937,0.0
51774.0,STARLINK-3629,PAYLOAD,2023-07-08 06:37:49,15.08835387,0.0001598,53.217,37.9193,90.1456,269.9719,-5.4106e-05,-1.149e-05,0.0,0 STARLINK-3629,1 51774U 22017G   23189.27627205 -.00001149  00000-0 -54106-4 0  9997,2 51774  53.2170  37.9193 0001598  90.1456 269.9719 15.08835387 76817,6917.894,95.438,540.865,538.654,0.0
51774.0,STARLINK-3629,PAYLOAD,2023-07-09 00:07:04,15.0884197,0.0001087,53.2169,34.6497,91.8632,268.2484,2.8127e-05,1.6e-06,0.0,0 STARLINK-3629,1 51774U 22017G   23190.00490911  .00000160  00000-0  28127-4 0  9996,2 51774  53.2169  34.6497 0001087  91.8632 268.2484 15.08841970 76921,6917.874,95.437,540.491,538.987,0.0
51774.0,STARLINK-3629,PAYLOAD,2023-07-09 06:28:37,15.08834953,0.0001049,53.2169,33.4599,90.7069,269.4043,-6.4832e-05,-1.319e-05,0.0,0 STARLINK-3629,1 51774U 22017G   23190.26987328 -.00001319  00000-0 -64832-4 0  9999,2 51774  53.2169  33.4599 0001049  90.7069 269.4043 15.08834953 76962,6917.896,95.438,540.487,539.035,0.0
51774.0,STARLINK-3629,PAYLOAD,2023-07-10 06:19:24,15.08841399,0.0001004,53.2169,28.9995,92.4514,267.6593,0.00011897,1.606e-05,0.0,0 STARLINK-3629,1 51774U 22017G   23191.26347505  .00001606  00000-0  11897-3 0  9996,2 51774  53.2169  28.9995 0001004  92.4514 267.6593 15.08841399 77116,6917.876,95.437,540.436,539.047,0.0
51774.0,STARLINK-3629,PAYLOAD,2023-07-11 06:10:11,15.08835989,0.0001584,53.2166,24.5386,85.2961,274.8212,3.8298e-05,3.21e-06,0.0,0 STARLINK-3629,1 51774U 22017G   23192.25707961  .00000321  00000-0  38298-4 0  9990,2 51774  53.2166  24.5386 0001584  85.2961 274.8212 15.08835989 77260,6917.893,95.438,540.853,538.662,0.0
51774.0,STARLINK-3629,PAYLOAD,2023-07-11 22:04:02,15.08846103,0.000108,53.2165,21.5653,80.8216,279.2898,0.00020281,2.942e-05,0.0,0 STARLINK-3629,1 51774U 22017G   23192.91947529  .00002942  00000-0  20281-3 0  9992,2 51774  53.2165  21.5653 0001080  80.8216 279.2898 15.08846103 77368,6917.862,95.437,540.474,538.98,0.0
51774.0,STARLINK-3629,PAYLOAD,2023-07-12 12:22:31,15.08839912,0.0001047,53.2168,18.889,84.5635,275.5477,0.00013995,1.94e-05,0.0,0 STARLINK-3629,1 51774U 22017G   23193.51563849  .00001940  00000-0  13995-3 0  9999,2 51774  53.2168  18.8890 0001047  84.5635 275.5477 15.08839912 77454,6917.881,95.438,540.47,539.021,0.0
51774.0,STARLINK-3629,PAYLOAD,2023-07-13 16:59:27,15.08837784,0.0001163,53.2166,13.5367,82.9714,277.141,0.00013238,1.819e-05,0.0,0 STARLINK-3629,1 51774U 22017G   23194.70796282  .00001819  00000-0  13238-3 0  9995,2 51774  53.2166  13.5367 0001163  82.9714 277.1410 15.08837784 77632,6917.887,95.438,540.557,538.948,0.0
51774.0,STARLINK-3629,PAYLOAD,2023-07-14 18:25:37,15.08852752,0.0001163,53.217,8.7786,90.3461,269.7664,0.00037571,5.699e-05,0.0,0 STARLINK-3629,1 51774U 22017G   23195.76779784  .00005699  00000-0  37571-3 0  9996,2 51774  53.2170   8.7786 0001163  90.3461 269.7664 15.08852752 77797,6917.841,95.437,540.511,538.902,0.0
51774.0,STARLINK-3629,PAYLOAD,2023-07-15 11:54:52,15.08838042,0.000105,53.2172,5.5072,85.667,274.4442,-3.3596e-05,-8.22e-06,0.0,0 STARLINK-3629,1 51774U 22017G   23196.49644084 -.00000822  00000-0 -33596-4 0  9990,2 51774  53.2172   5.5072 0001050  85.6670 274.4442 15.08838042 77902,6917.886,95.438,540.478,539.025,0.0
51774.0,STARLINK-3629,PAYLOAD,2023-07-16 18:07:12,15.08845966,0.0001139,53.2169,359.8573,91.6506,268.4617,0.00095112,0.00014884,0.0,0 STARLINK-3629,1 51774U 22017G   23197.75500307  .00014884  00000-0  95112-3 0  9991,2 51774  53.2169 359.8573 0001139  91.6506 268.4617 15.08845966 78093,6917.862,95.437,540.515,538.939,0.0
